SL-4 R/B                
1 39679U 14021B   26054.66713566  .00016135  00000+0  36046-3 0  9996
2 39679  51.6066  45.6595 0098599  51.8679 309.1141 15.38658459654110
ALOS-2                  
1 39766U 14029A   26054.85415642  .00001915  00000+0  26311-3 0  9990
2 39766  97.9197 153.6511 0001643  98.5239 261.6159 14.79482286634821
YAOGAN-29               
1 41038U 15069A   26054.89513596  .00000538  00000+0  72945-4 0  9996
2 41038  98.0159  83.2866 0002587  59.4988 300.6480 14.82977513553830
ASTRO-H (HITOMI)        
1 41337U 16012A   26054.75201498  .00003348  00000+0  19578-3 0  9991
2 41337  30.9994  86.4816 0009892 192.9267 167.1119 15.09892575550121
HXMT (HUIYAN)           
1 42758U 17034A   26054.55899333  .00005235  00000+0  26675-3 0  9996
2 42758  43.0137  95.2212 0031113 147.2200 213.0586 15.17265254480399
CZ-2C R/B               
1 43521U 18054D   26054.32792388  .01153855  85993-3  90803-3 0  9990
2 43521  35.1266  39.1545 0010899 178.6023 181.4754 16.13616908426598
SAOCOM 1A               
1 43641U 18076A   26054.71832991  .00000155  00000+0  26032-4 0  9994
2 43641  97.8881 243.0880 0001293  78.9588 281.1770 14.82150407399296
H-2A R/B                
1 43682U 18084L   26054.83714204  .00019921  00000+0  48422-3 0  9994
2 43682  98.8749 269.2708 0026231  71.8770 288.5325 15.40690579403644
SAOCOM 1B               
1 46265U 20059A   26054.81708374  .00000932  00000+0  12358-3 0  9999
2 46265  97.8880 242.2832 0001450  83.9705 276.1673 14.82157016296699
CSS (TIANHE)            
1 48274U 21035A   26054.82636367  .00020599  00000+0  25039-3 0  9990
2 48274  41.4666 292.4749 0005430 181.6341 178.4480 15.60056086275448
COSMOS 2550             
1 48865U 21056A   26052.86751211 -.00000189  00000+0  98957-7 0  9994
2 48865  67.1417  88.7921 0008383 269.2454  90.7739 15.33831385261035
CZ-2C R/B               
1 52794U 22058K   26054.36292910  .00041049  00000+0  62174-3 0  9993
2 52794  50.1894  31.9240 0042099 139.8013 220.6083 15.53163267207902
