CCSDS_OMM_VERS = 2.0
CREATION_DATE  = 
ORIGINATOR     = 

OBJECT_NAME    = SL-4 R/B
OBJECT_ID      = 2014-021B
CENTER_NAME    = EARTH
REF_FRAME      = TEME
TIME_SYSTEM    = UTC
MEAN_ELEMENT_THEORY = SGP/SGP4

EPOCH          = 2026-02-23T16:00:40.521024
MEAN_MOTION    = 15.38658459
ECCENTRICITY   = .0098599
INCLINATION    = 51.6066
RA_OF_ASC_NODE = 45.6595
ARG_OF_PERICENTER = 51.8679
MEAN_ANOMALY   = 309.1141

EPHEMERIS_TYPE = 0
CLASSIFICATION_TYPE = U
NORAD_CAT_ID   = 39679
ELEMENT_SET_NO = 999
REV_AT_EPOCH   = 65411
BSTAR          = .36046E-3
MEAN_MOTION_DOT = .16135E-3
MEAN_MOTION_DDOT = 0

CCSDS_OMM_VERS = 2.0
CREATION_DATE  = 
ORIGINATOR     = 

OBJECT_NAME    = ALOS-2
OBJECT_ID      = 2014-029A
CENTER_NAME    = EARTH
REF_FRAME      = TEME
TIME_SYSTEM    = UTC
MEAN_ELEMENT_THEORY = SGP/SGP4

EPOCH          = 2026-02-23T20:29:59.114688
MEAN_MOTION    = 14.79482286
ECCENTRICITY   = .0001643
INCLINATION    = 97.9197
RA_OF_ASC_NODE = 153.6511
ARG_OF_PERICENTER = 98.5239
MEAN_ANOMALY   = 261.6159

EPHEMERIS_TYPE = 0
CLASSIFICATION_TYPE = U
NORAD_CAT_ID   = 39766
ELEMENT_SET_NO = 999
REV_AT_EPOCH   = 63482
BSTAR          = .26311E-3
MEAN_MOTION_DOT = .1915E-4
MEAN_MOTION_DDOT = 0

CCSDS_OMM_VERS = 2.0
CREATION_DATE  = 
ORIGINATOR     = 

OBJECT_NAME    = YAOGAN-29
OBJECT_ID      = 2015-069A
CENTER_NAME    = EARTH
REF_FRAME      = TEME
TIME_SYSTEM    = UTC
MEAN_ELEMENT_THEORY = SGP/SGP4

EPOCH          = 2026-02-23T21:28:59.746944
MEAN_MOTION    = 14.82977513
ECCENTRICITY   = .0002587
INCLINATION    = 98.0159
RA_OF_ASC_NODE = 83.2866
ARG_OF_PERICENTER = 59.4988
MEAN_ANOMALY   = 300.6480

EPHEMERIS_TYPE = 0
CLASSIFICATION_TYPE = U
NORAD_CAT_ID   = 41038
ELEMENT_SET_NO = 999
REV_AT_EPOCH   = 55383
BSTAR          = .72945E-4
MEAN_MOTION_DOT = .538E-5
MEAN_MOTION_DDOT = 0

CCSDS_OMM_VERS = 2.0
CREATION_DATE  = 
ORIGINATOR     = 

OBJECT_NAME    = ASTRO-H (HITOMI)
OBJECT_ID      = 2016-012A
CENTER_NAME    = EARTH
REF_FRAME      = TEME
TIME_SYSTEM    = UTC
MEAN_ELEMENT_THEORY = SGP/SGP4

EPOCH          = 2026-02-23T18:02:54.094272
MEAN_MOTION    = 15.09892575
ECCENTRICITY   = .0009892
INCLINATION    = 30.9994
RA_OF_ASC_NODE = 86.4816
ARG_OF_PERICENTER = 192.9267
MEAN_ANOMALY   = 167.1119

EPHEMERIS_TYPE = 0
CLASSIFICATION_TYPE = U
NORAD_CAT_ID   = 41337
ELEMENT_SET_NO = 999
REV_AT_EPOCH   = 55012
BSTAR          = .19578E-3
MEAN_MOTION_DOT = .3348E-4
MEAN_MOTION_DDOT = 0

CCSDS_OMM_VERS = 2.0
CREATION_DATE  = 
ORIGINATOR     = 

OBJECT_NAME    = HXMT (HUIYAN)
OBJECT_ID      = 2017-034A
CENTER_NAME    = EARTH
REF_FRAME      = TEME
TIME_SYSTEM    = UTC
MEAN_ELEMENT_THEORY = SGP/SGP4

EPOCH          = 2026-02-23T13:24:57.023712
MEAN_MOTION    = 15.17265254
ECCENTRICITY   = .0031113
INCLINATION    = 43.0137
RA_OF_ASC_NODE = 95.2212
ARG_OF_PERICENTER = 147.2200
MEAN_ANOMALY   = 213.0586

EPHEMERIS_TYPE = 0
CLASSIFICATION_TYPE = U
NORAD_CAT_ID   = 42758
ELEMENT_SET_NO = 999
REV_AT_EPOCH   = 48039
BSTAR          = .26675E-3
MEAN_MOTION_DOT = .5235E-4
MEAN_MOTION_DDOT = 0

CCSDS_OMM_VERS = 2.0
CREATION_DATE  = 
ORIGINATOR     = 

OBJECT_NAME    = CZ-2C R/B
OBJECT_ID      = 2018-054D
CENTER_NAME    = EARTH
REF_FRAME      = TEME
TIME_SYSTEM    = UTC
MEAN_ELEMENT_THEORY = SGP/SGP4

EPOCH          = 2026-02-23T07:52:12.623232
MEAN_MOTION    = 16.13616908
ECCENTRICITY   = .0010899
INCLINATION    = 35.1266
RA_OF_ASC_NODE = 39.1545
ARG_OF_PERICENTER = 178.6023
MEAN_ANOMALY   = 181.4754

EPHEMERIS_TYPE = 0
CLASSIFICATION_TYPE = U
NORAD_CAT_ID   = 43521
ELEMENT_SET_NO = 999
REV_AT_EPOCH   = 42659
BSTAR          = .90803E-3
MEAN_MOTION_DOT = .1153855E-1
MEAN_MOTION_DDOT = .85993E-3

CCSDS_OMM_VERS = 2.0
CREATION_DATE  = 
ORIGINATOR     = 

OBJECT_NAME    = SAOCOM 1A
OBJECT_ID      = 2018-076A
CENTER_NAME    = EARTH
REF_FRAME      = TEME
TIME_SYSTEM    = UTC
MEAN_ELEMENT_THEORY = SGP/SGP4

EPOCH          = 2026-02-23T17:14:23.704224
MEAN_MOTION    = 14.82150407
ECCENTRICITY   = .0001293
INCLINATION    = 97.8881
RA_OF_ASC_NODE = 243.0880
ARG_OF_PERICENTER = 78.9588
MEAN_ANOMALY   = 281.1770

EPHEMERIS_TYPE = 0
CLASSIFICATION_TYPE = U
NORAD_CAT_ID   = 43641
ELEMENT_SET_NO = 999
REV_AT_EPOCH   = 39929
BSTAR          = .26032E-4
MEAN_MOTION_DOT = .155E-5
MEAN_MOTION_DDOT = 0

CCSDS_OMM_VERS = 2.0
CREATION_DATE  = 
ORIGINATOR     = 

OBJECT_NAME    = H-2A R/B
OBJECT_ID      = 2018-084L
CENTER_NAME    = EARTH
REF_FRAME      = TEME
TIME_SYSTEM    = UTC
MEAN_ELEMENT_THEORY = SGP/SGP4

EPOCH          = 2026-02-23T20:05:29.072256
MEAN_MOTION    = 15.40690579
ECCENTRICITY   = .0026231
INCLINATION    = 98.8749
RA_OF_ASC_NODE = 269.2708
ARG_OF_PERICENTER = 71.8770
MEAN_ANOMALY   = 288.5325

EPHEMERIS_TYPE = 0
CLASSIFICATION_TYPE = U
NORAD_CAT_ID   = 43682
ELEMENT_SET_NO = 999
REV_AT_EPOCH   = 40364
BSTAR          = .48422E-3
MEAN_MOTION_DOT = .19921E-3
MEAN_MOTION_DDOT = 0

CCSDS_OMM_VERS = 2.0
CREATION_DATE  = 
ORIGINATOR     = 

OBJECT_NAME    = SAOCOM 1B
OBJECT_ID      = 2020-059A
CENTER_NAME    = EARTH
REF_FRAME      = TEME
TIME_SYSTEM    = UTC
MEAN_ELEMENT_THEORY = SGP/SGP4

EPOCH          = 2026-02-23T19:36:36.035136
MEAN_MOTION    = 14.82157016
ECCENTRICITY   = .000145
INCLINATION    = 97.8880
RA_OF_ASC_NODE = 242.2832
ARG_OF_PERICENTER = 83.9705
MEAN_ANOMALY   = 276.1673

EPHEMERIS_TYPE = 0
CLASSIFICATION_TYPE = U
NORAD_CAT_ID   = 46265
ELEMENT_SET_NO = 999
REV_AT_EPOCH   = 29669
BSTAR          = .12358E-3
MEAN_MOTION_DOT = .932E-5
MEAN_MOTION_DDOT = 0

CCSDS_OMM_VERS = 2.0
CREATION_DATE  = 
ORIGINATOR     = 

OBJECT_NAME    = CSS (TIANHE)
OBJECT_ID      = 2021-035A
CENTER_NAME    = EARTH
REF_FRAME      = TEME
TIME_SYSTEM    = UTC
MEAN_ELEMENT_THEORY = SGP/SGP4

EPOCH          = 2026-02-23T19:49:57.821088
MEAN_MOTION    = 15.60056086
ECCENTRICITY   = .000543
INCLINATION    = 41.4666
RA_OF_ASC_NODE = 292.4749
ARG_OF_PERICENTER = 181.6341
MEAN_ANOMALY   = 178.4480

EPHEMERIS_TYPE = 0
CLASSIFICATION_TYPE = U
NORAD_CAT_ID   = 48274
ELEMENT_SET_NO = 999
REV_AT_EPOCH   = 27544
BSTAR          = .25039E-3
MEAN_MOTION_DOT = .20599E-3
MEAN_MOTION_DDOT = 0

CCSDS_OMM_VERS = 2.0
CREATION_DATE  = 
ORIGINATOR     = 

OBJECT_NAME    = COSMOS 2550
OBJECT_ID      = 2021-056A
CENTER_NAME    = EARTH
REF_FRAME      = TEME
TIME_SYSTEM    = UTC
MEAN_ELEMENT_THEORY = SGP/SGP4

EPOCH          = 2026-02-21T20:49:13.046304
MEAN_MOTION    = 15.33831385
ECCENTRICITY   = .0008383
INCLINATION    = 67.1417
RA_OF_ASC_NODE = 88.7921
ARG_OF_PERICENTER = 269.2454
MEAN_ANOMALY   = 90.7739

EPHEMERIS_TYPE = 0
CLASSIFICATION_TYPE = U
NORAD_CAT_ID   = 48865
ELEMENT_SET_NO = 999
REV_AT_EPOCH   = 26103
BSTAR          = .98957E-7
MEAN_MOTION_DOT = -.189E-5
MEAN_MOTION_DDOT = 0

CCSDS_OMM_VERS = 2.0
CREATION_DATE  = 
ORIGINATOR     = 

OBJECT_NAME    = CZ-2C R/B
OBJECT_ID      = 2022-058K
CENTER_NAME    = EARTH
REF_FRAME      = TEME
TIME_SYSTEM    = UTC
MEAN_ELEMENT_THEORY = SGP/SGP4

EPOCH          = 2026-02-23T08:42:37.074240
MEAN_MOTION    = 15.53163267
ECCENTRICITY   = .00420999
INCLINATION    = 50.1894
RA_OF_ASC_NODE = 31.9240
ARG_OF_PERICENTER = 139.8013
MEAN_ANOMALY   = 220.6083

EPHEMERIS_TYPE = 0
CLASSIFICATION_TYPE = U
NORAD_CAT_ID   = 52794
ELEMENT_SET_NO = 999
REV_AT_EPOCH   = 20790
BSTAR          = .62173775E-3
MEAN_MOTION_DOT = .41049E-3
MEAN_MOTION_DDOT = 0

